NORAD_CAT_ID,OBJECT_NAME,OBJECT_TYPE,EPOCH,MEAN_MOTION,ECCENTRICITY,INCLINATION,RA_OF_ASC_NODE,ARG_OF_PERICENTER,MEAN_ANOMALY,BSTAR,MEAN_MOTION_DOT,MEAN_MOTION_DDOT,TLE_LINE0,TLE_LINE1,TLE_LINE2,SEMIMAJOR_AXIS,PERIOD,APOGEE,PERIGEE,DECAYED
51137.0,STARLINK-3180,PAYLOAD,2024-05-16 23:28:37,15.0887088,4.79e-05,53.2202,29.6616,348.1195,11.9786,0.0017794,0.00028169,0.0,0 STARLINK-3180,1 51137U 22005AK  24137.97821597  .00028169  00000-0  17794-2 0  9997,2 51137  53.2202  29.6616 0000479 348.1195  11.9786 15.08870880129957,6917.786,95.436,539.982,539.32,0.0
51137.0,STARLINK-3180,PAYLOAD,2024-05-17 16:57:51,15.08858708,0.0001389,53.2185,26.3897,319.4345,40.6543,0.00031788,4.777e-05,0.0,0 STARLINK-3180,1 51137U 22005AK  24138.70684817  .00004777  00000-0  31788-3 0  9990,2 51137  53.2185  26.3897 0001389 319.4345  40.6543 15.08858708130060,6917.823,95.436,540.649,538.727,0.0
51137.0,STARLINK-3180,PAYLOAD,2024-05-17 23:19:24,15.0885122,0.0001158,53.2177,25.1944,65.2597,294.8515,-0.0001549,-2.753e-05,0.0,0 STARLINK-3180,1 51137U 22005AK  24138.97180743 -.00002753  00000-0 -15490-3 0  9994,2 51137  53.2177  25.1944 0001158  65.2597 294.8515 15.08851220128993,6917.846,95.437,540.512,538.91,0.0
51137.0,STARLINK-3180,PAYLOAD,2024-05-18 08:51:42,15.08858571,0.0001311,53.2196,23.4157,85.7803,274.3339,8.1823e-05,1.015e-05,0.0,0 STARLINK-3180,1 51137U 22005AK  24139.36924397  .00001015  00000-0  81823-4 0  9991,2 51137  53.2196  23.4157 0001311  85.7803 274.3339 15.08858571129050,6917.824,95.436,540.596,538.782,0.0
51137.0,STARLINK-3180,PAYLOAD,2024-05-18 19:59:24,15.08859834,0.0001498,53.2158,21.3326,94.3368,265.7795,0.00024382,3.597e-05,0.0,0 STARLINK-3180,1 51137U 22005AK  24139.83291728  .00003597  00000-0  24382-3 0  9991,2 51137  53.2158  21.3326 0001498  94.3368 265.7795 15.08859834130236,6917.82,95.436,540.721,538.648,0.0
51137.0,STARLINK-3180,PAYLOAD,2024-05-18 23:10:10,15.08865693,9.9e-05,53.2161,20.7401,69.4145,290.6953,0.00045945,7.037e-05,0.0,0 STARLINK-3180,1 51137U 22005AK  24139.96539620  .00007037  00000-0  45945-3 0  9992,2 51137  53.2161  20.7401 0000990  69.4145 290.6953 15.08865693129140,6917.802,95.436,540.352,538.982,0.0
51137.0,STARLINK-3180,PAYLOAD,2024-05-19 02:20:56,15.08871003,0.0001052,53.2167,20.1445,70.4677,289.6429,0.00061404,9.506e-05,0.0,0 STARLINK-3180,1 51137U 22005AK  24140.09787506  .00009506  00000-0  61404-3 0  9997,2 51137  53.2167  20.1445 0001052  70.4677 289.6429 15.08871003129160,6917.786,95.436,540.378,538.923,0.0
51137.0,STARLINK-3180,PAYLOAD,2024-05-19 21:25:35,15.08820467,0.0001282,53.2166,16.5752,114.582,245.5306,-0.00037812,-6.297e-05,0.0,0 STARLINK-3180,1 51137U 22005AK  24140.89277400 -.00006297  00000-0 -37812-3 0  9994,2 51137  53.2166  16.5752 0001282 114.5820 245.5306 15.08820467130394,6917.94,95.439,540.692,538.918,0.0
51137.0,STARLINK-3180,PAYLOAD,2024-05-20 02:11:44,15.08863963,9.73e-05,53.2179,15.685,128.9049,231.203,0.0010711,0.00016811,0.0,0 STARLINK-3180,1 51137U 22005AK  24141.09148543  .00016811  00000-0  10711-2 0  9991,2 51137  53.2179  15.6850 0000973 128.9049 231.2030 15.08863963130423,6917.807,95.436,540.345,538.999,0.0
51137.0,STARLINK-3180,PAYLOAD,2024-05-20 14:54:48,15.08872176,9.33e-05,53.2165,13.3036,137.598,222.5085,0.00097813,0.00015327,0.0,0 STARLINK-3180,1 51137U 22005AK  24141.62139476  .00015327  00000-0  97813-3 0  9995,2 51137  53.2165  13.3036 0000933 137.5980 222.5085 15.08872176129398,6917.782,95.436,540.292,539.002,0.0
51137.0,STARLINK-3180,PAYLOAD,2024-05-20 21:16:22,15.08831161,0.0001142,53.2159,12.1124,51.8281,308.2814,5.344e-05,5.63e-06,0.0,0 STARLINK-3180,1 51137U 22005AK  24141.88636766  .00000563  00000-0  53440-4 0  9992,2 51137  53.2159  12.1124 0001142  51.8281 308.2814 15.08831161130541,6917.907,95.438,540.562,538.982,0.0
51137.0,STARLINK-3180,PAYLOAD,2024-05-21 00:27:08,15.08824597,0.0001198,53.2167,11.5198,106.196,253.9164,-0.00023926,-4.092e-05,0.0,0 STARLINK-3180,1 51137U 22005AK  24142.01884721 -.00004092  00000-0 -23926-3 0  9992,2 51137  53.2167  11.5198 0001198 106.1960 253.9164 15.08824597129450,6917.927,95.439,540.621,538.964,0.0
51137.0,STARLINK-3180,PAYLOAD,2024-05-21 22:42:32,15.08839048,0.0001336,53.2171,7.3574,85.5063,274.6081,0.00058023,8.958e-05,0.0,0 STARLINK-3180,1 51137U 22005AK  24142.94621373  .00008958  00000-0  58023-3 0  9995,2 51137  53.2171   7.3574 0001336  85.5063 274.6081 15.08839048129594,6917.883,95.438,540.673,538.824,0.0
51137.0,STARLINK-3180,PAYLOAD,2024-05-22 00:17:56,15.08844237,0.0001296,53.2169,7.0599,92.1447,267.9693,0.0011613,0.00018245,0.0,0 STARLINK-3180,1 51137U 22005AK  24143.01245468  .00018245  00000-0  11613-2 0  9994,2 51137  53.2169   7.0599 0001296  92.1447 267.9693 15.08844237130716,6917.867,95.437,540.629,538.836,0.0
51137.0,STARLINK-3180,PAYLOAD,2024-05-22 20:57:57,15.08842849,0.0001523,53.2168,3.1939,107.594,252.5219,0.00059137,9.137e-05,0.0,0 STARLINK-3180,1 51137U 22005AK  24143.87357907  .00009137  00000-0  59137-3 0  9994,2 51137  53.2168   3.1939 0001523 107.5940 252.5219 15.08842849130847,6917.872,95.437,540.79,538.683,0.0
51137.0,STARLINK-3180,PAYLOAD,2024-05-23 19:13:21,15.08841976,0.0001399,53.2181,359.0344,66.7026,293.4114,0.00037738,5.723e-05,0.0,0 STARLINK-3180,1 51137U 22005AK  24144.80094419  .00005723  00000-0  37738-3 0  9994,2 51137  53.2181 359.0344 0001399  66.7026 293.4114 15.08841976130980,6917.874,95.437,540.707,538.772,0.0
51137.0,STARLINK-3180,PAYLOAD,2024-05-23 20:48:44,15.08843869,0.0001529,53.2169,358.744,64.1043,296.0107,0.00043511,6.644e-05,0.0,0 STARLINK-3180,1 51137U 22005AK  24144.86718494  .00006644  00000-0  43511-3 0  9995,2 51137  53.2169 358.7440 0001529  64.1043 296.0107 15.08843869129886,6917.869,95.437,540.791,538.676,0.0
51137.0,STARLINK-3180,PAYLOAD,2024-05-24 14:17:59,15.08842811,0.0001674,53.2178,355.4751,62.2429,297.8732,0.00027193,4.043e-05,0.0,0 STARLINK-3180,1 51137U 22005AK  24145.59582552  .00004043  00000-0  27193-3 0  9999,2 51137  53.2178 355.4751 0001674  62.2429 297.8732 15.08842811129994,6917.872,95.437,540.895,538.579,0.0
51137.0,STARLINK-3180,PAYLOAD,2024-05-24 20:39:31,15.08845361,0.0001351,53.217,354.2742,64.3819,295.7313,0.00018016,2.581e-05,0.0,0 STARLINK-3180,1 51137U 22005AK  24145.86078347  .00002581  00000-0  18016-3 0  9990,2 51137  53.2170 354.2742 0001351  64.3819 295.7313 15.08845361131146,6917.864,95.437,540.664,538.794,0.0
51137.0,STARLINK-3180,PAYLOAD,2024-05-25 14:08:46,15.08836087,0.0001055,53.217,351.0038,88.739,271.3723,-7.508e-07,-3e-06,0.0,0 STARLINK-3180,1 51137U 22005AK  24146.58942785 -.00000300  00000-0 -75080-6 0  9992,2 51137  53.2170 351.0038 0001055  88.7390 271.3723 15.08836087130143,6917.892,95.438,540.487,539.028,0.0
51137.0,STARLINK-3180,PAYLOAD,2024-05-25 20:30:19,15.0883806,0.0001091,53.217,349.8157,83.2208,276.8908,0.0001036,1.361e-05,0.0,0 STARLINK-3180,1 51137U 22005AK  24146.85439056  .00001361  00000-0  10360-3 0  9997,2 51137  53.2170 349.8157 0001091  83.2208 276.8908 15.08838060131293,6917.886,95.438,540.506,538.997,0.0
51137.0,STARLINK-3180,PAYLOAD,2024-05-26 13:59:33,15.08838221,0.0001057,53.2173,346.5458,88.6451,271.4662,0.0001479,2.067e-05,0.0,0 STARLINK-3180,1 51137U 22005AK  24147.58303230  .00002067  00000-0  14790-3 0  9997,2 51137  53.2173 346.5458 0001057  88.6451 271.4662 15.08838221130291,6917.886,95.438,540.482,539.02,0.0
51137.0,STARLINK-3180,PAYLOAD,2024-05-26 20:21:07,15.08817747,0.0001201,53.2176,345.3559,87.3723,272.7407,-0.00030264,-5.098e-05,0.0,0 STARLINK-3180,1 51137U 22005AK  24147.84799973 -.00005098  00000-0 -30264-3 0  9992,2 51137  53.2176 345.3559 0001201  87.3723 272.7407 15.08817747131441,6917.948,95.439,540.644,538.983,0.0
51137.0,STARLINK-3180,PAYLOAD,2024-05-26 21:56:29,15.08852489,0.0001216,53.2175,345.0584,85.4521,274.661,0.00038604,5.863e-05,0.0,0 STARLINK-3180,1 51137U 22005AK  24147.91422729  .00005863  00000-0  38604-3 0  9996,2 51137  53.2175 345.0584 0001216  85.4521 274.6610 15.08852489130343,6917.842,95.437,540.548,538.866,0.0
51137.0,STARLINK-3180,PAYLOAD,2024-05-27 05:53:24,15.08872142,0.0001737,53.218,343.5813,119.0351,241.0815,0.00087557,0.00013686,0.0,0 STARLINK-3180,1 51137U 22005AK  24148.24542586  .00013686  00000-0  87557-3 0  9990,2 51137  53.2180 343.5813 0001737 119.0351 241.0815 15.08872142130398,6917.782,95.436,540.849,538.446,0.0
51137.0,STARLINK-3180,PAYLOAD,2024-05-27 20:11:53,15.08847465,0.0001259,53.2182,340.8969,85.8238,274.2899,0.00020646,3e-05,0.0,0 STARLINK-3180,1 51137U 22005AK  24148.84158737  .00003000  00000-0  20646-3 0  9992,2 51137  53.2182 340.8969 0001259  85.8238 274.2899 15.08847465131598,6917.858,95.437,540.594,538.852,0.0
51137.0,STARLINK-3180,PAYLOAD,2024-05-27 21:47:16,15.08850575,0.0001301,53.2185,340.5987,92.0202,268.094,0.00025657,3.799e-05,0.0,0 STARLINK-3180,1 51137U 22005AK  24148.90782571  .00003799  00000-0  25657-3 0  9990,2 51137  53.2185 340.5987 0001301  92.0202 268.0940 15.08850575130499,6917.848,95.437,540.613,538.813,0.0
51137.0,STARLINK-3180,PAYLOAD,2024-05-28 05:44:11,15.08855257,0.0001344,53.2188,339.1084,84.8096,275.305,0.00028381,4.234e-05,0.0,0 STARLINK-3180,1 51137U 22005AK  24149.23902216  .00004234  00000-0  28381-3 0  9999,2 51137  53.2188 339.1084 0001344  84.8096 275.3050 15.08855257130542,6917.834,95.437,540.629,538.769,0.0
51137.0,STARLINK-3180,PAYLOAD,2024-05-28 20:02:39,15.08847316,0.0001122,53.218,336.4304,84.5205,275.5915,9.1484e-05,1.169e-05,0.0,0 STARLINK-3180,1 51137U 22005AK  24149.83518428  .00001169  00000-0  91484-4 0  9992,2 51137  53.2180 336.4304 0001122  84.5205 275.5915 15.08847316131744,6917.858,95.437,540.499,538.947,0.0
51137.0,STARLINK-3180,PAYLOAD,2024-05-29 11:56:31,15.0884016,9.81e-05,53.2171,333.4592,103.2746,256.8355,-4.8424e-05,-1.058e-05,0.0,0 STARLINK-3180,1 51137U 22005AK  24150.49758745 -.00001058  00000-0 -48424-4 0  9999,2 51137  53.2171 333.4592 0000981 103.2746 256.8355 15.08840160131842,6917.88,95.438,540.424,539.066,0.0
